[{"OBJECT_NAME":"ONEWEB-0495","OBJECT_ID":"2022-138C","EPOCH":"2025-11-15T13:29:02.981184","MEAN_MOTION":13.19726627,"ECCENTRICITY":0.0002529,"INCLINATION":87.921,"RA_OF_ASC_NODE":347.4837,"ARG_OF_PERICENTER":102.7936,"MEAN_ANOMALY":257.3479,"EPHEMERIS_TYPE":0,"CLASSIFICATION_TYPE":"U","NORAD_CAT_ID":54115,"ELEMENT_SET_NO":999,"REV_AT_EPOCH":14864,"BSTAR":0.00029252,"MEAN_MOTION_DOT":1.3e-6,"MEAN_MOTION_DDOT":0},{"OBJECT_NAME":"ONEWEB-0497","OBJECT_ID":"2022-138D","EPOCH":"2025-11-15T11:58:03.872352","MEAN_MOTION":13.1972651,"ECCENTRICITY":0.0001938,"INCLINATION":87.9222,"RA_OF_ASC_NODE":347.4807,"ARG_OF_PERICENTER":95.6801,"MEAN_ANOMALY":264.4553,"EPHEMERIS_TYPE":0,"CLASSIFICATION_TYPE":"U","NORAD_CAT_ID":54116,"ELEMENT_SET_NO":999,"REV_AT_EPOCH":14862,"BSTAR":0.00040629,"MEAN_MOTION_DOT":1.76e-6,"MEAN_MOTION_DDOT":0},{"OBJECT_NAME":"ONEWEB-0499","OBJECT_ID":"2022-138E","EPOCH":"2025-11-15T11:34:11.567712","MEAN_MOTION":13.19726557,"ECCENTRICITY":0.0001921,"INCLINATION":87.9218,"RA_OF_ASC_NODE":347.4976,"ARG_OF_PERICENTER":101.902,"MEAN_ANOMALY":258.2328,"EPHEMERIS_TYPE":0,"CLASSIFICATION_TYPE":"U","NORAD_CAT_ID":54117,"ELEMENT_SET_NO":999,"REV_AT_EPOCH":14863,"BSTAR":0.00020736,"MEAN_MOTION_DOT":9.6e-7,"MEAN_MOTION_DDOT":0},{"OBJECT_NAME":"ONEWEB-0500","OBJECT_ID":"2022-138F","EPOCH":"2025-11-15T11:37:35.573664","MEAN_MOTION":13.19727031,"ECCENTRICITY":0.0001873,"INCLINATION":87.9217,"RA_OF_ASC_NODE":347.4845,"ARG_OF_PERICENTER":92.6428,"MEAN_ANOMALY":267.4919,"EPHEMERIS_TYPE":0,"CLASSIFICATION_TYPE":"U","NORAD_CAT_ID":54118,"ELEMENT_SET_NO":999,"REV_AT_EPOCH":14864,"BSTAR":0.00022398,"MEAN_MOTION_DOT":1.03e-6,"MEAN_MOTION_DDOT":0},{"OBJECT_NAME":"ONEWEB-0501","OBJECT_ID":"2022-138G","EPOCH":"2025-11-15T19:37:30.745344","MEAN_MOTION":13.19726312,"ECCENTRICITY":0.0002271,"INCLINATION":87.9226,"RA_OF_ASC_NODE":347.4142,"ARG_OF_PERICENTER":100.5607,"MEAN_ANOMALY":259.5782,"EPHEMERIS_TYPE":0,"CLASSIFICATION_TYPE":"U","NORAD_CAT_ID":54119,"ELEMENT_SET_NO":999,"REV_AT_EPOCH":14866,"BSTAR":-1.7975e-5,"MEAN_MOTION_DOT":6.0e-8,"MEAN_MOTION_DDOT":0},{"OBJECT_NAME":"ONEWEB-0502","OBJECT_ID":"2022-138H","EPOCH":"2025-11-15T12:00:19.611936","MEAN_MOTION":13.1972758,"ECCENTRICITY":0.0001932,"INCLINATION":87.9221,"RA_OF_ASC_NODE":347.459,"ARG_OF_PERICENTER":101.4152,"MEAN_ANOMALY":258.7197,"EPHEMERIS_TYPE":0,"CLASSIFICATION_TYPE":"U","NORAD_CAT_ID":54120,"ELEMENT_SET_NO":999,"REV_AT_EPOCH":14864,"BSTAR":0.00046683,"MEAN_MOTION_DOT":2.0e-6,"MEAN_MOTION_DDOT":0},{"OBJECT_NAME":"ONEWEB-0503","OBJECT_ID":"2022-138J","EPOCH":"2025-11-15T11:44:24.884160","MEAN_MOTION":13.19727055,"ECCENTRICITY":0.0001664,"INCLINATION":87.9227,"RA_OF_ASC_NODE":347.4658,"ARG_OF_PERICENTER":102.0021,"MEAN_ANOMALY":258.1298,"EPHEMERIS_TYPE":0,"CLASSIFICATION_TYPE":"U","NORAD_CAT_ID":54121,"ELEMENT_SET_NO":999,"REV_AT_EPOCH":14863,"BSTAR":0.00025225,"MEAN_MOTION_DOT":1.14e-6,"MEAN_MOTION_DDOT":0},{"OBJECT_NAME":"ONEWEB-0504","OBJECT_ID":"2022-138K","EPOCH":"2025-11-15T11:26:13.549344","MEAN_MOTION":13.19726527,"ECCENTRICITY":0.0002002,"INCLINATION":87.9223,"RA_OF_ASC_NODE":347.4857,"ARG_OF_PERICENTER":103.6275,"MEAN_ANOMALY":256.5081,"EPHEMERIS_TYPE":0,"CLASSIFICATION_TYPE":"U","NORAD_CAT_ID":54122,"ELEMENT_SET_NO":999,"REV_AT_EPOCH":14864,"BSTAR":0.00016611,"MEAN_MOTION_DOT":7.9e-7,"MEAN_MOTION_DDOT":0},{"OBJECT_NAME":"ONEWEB-0505","OBJECT_ID":"2022-138L","EPOCH":"2025-11-15T11:21:40.248864","MEAN_MOTION":13.19727164,"ECCENTRICITY":0.0002305,"INCLINATION":87.9227,"RA_OF_ASC_NODE":347.4749,"ARG_OF_PERICENTER":105.1119,"MEAN_ANOMALY":255.0269,"EPHEMERIS_TYPE":0,"CLASSIFICATION_TYPE":"U","NORAD_CAT_ID":54123,"ELEMENT_SET_NO":999,"REV_AT_EPOCH":14862,"BSTAR":8.2838e-5,"MEAN_MOTION_DOT":4.6e-7,"MEAN_MOTION_DDOT":0},{"OBJECT_NAME":"ONEWEB-0506","OBJECT_ID":"2022-138M","EPOCH":"2025-11-15T19:51:09.317088","MEAN_MOTION":13.19726453,"ECCENTRICITY":0.0001979,"INCLINATION":87.9222,"RA_OF_ASC_NODE":347.4015,"ARG_OF_PERICENTER":98.9507,"MEAN_ANOMALY":261.185,"EPHEMERIS_TYPE":0,"CLASSIFICATION_TYPE":"U","NORAD_CAT_ID":54124,"ELEMENT_SET_NO":999,"REV_AT_EPOCH":14866,"BSTAR":-5.3099e-5,"MEAN_MOTION_DOT":-8.0e-8,"MEAN_MOTION_DDOT":0},{"OBJECT_NAME":"ONEWEB-0507","OBJECT_ID":"2022-138N","EPOCH":"2025-11-15T11:14:50.401824","MEAN_MOTION":13.19727014,"ECCENTRICITY":0.0002081,"INCLINATION":87.9209,"RA_OF_ASC_NODE":347.5129,"ARG_OF_PERICENTER":97.9432,"MEAN_ANOMALY":262.1937,"EPHEMERIS_TYPE":0,"CLASSIFICATION_TYPE":"U","NORAD_CAT_ID":54125,"ELEMENT_SET_NO":999,"REV_AT_EPOCH":14866,"BSTAR":0.00015994,"MEAN_MOTION_DOT":7.7e-7,"MEAN_MOTION_DDOT":0},{"OBJECT_NAME":"ONEWEB-0508","OBJECT_ID":"2022-138P","EPOCH":"2025-11-15T11:10:16.779072","MEAN_MOTION":13.19727448,"ECCENTRICITY":0.0002278,"INCLINATION":87.9222,"RA_OF_ASC_NODE":347.5045,"ARG_OF_PERICENTER":99.5108,"MEAN_ANOMALY":260.6282,"EPHEMERIS_TYPE":0,"CLASSIFICATION_TYPE":"U","NORAD_CAT_ID":54126,"ELEMENT_SET_NO":999,"REV_AT_EPOCH":14864,"BSTAR":8.1e-5,"MEAN_MOTION_DOT":4.5e-7,"MEAN_MOTION_DDOT":0},{"OBJECT_NAME":"ONEWEB-0509","OBJECT_ID":"2022-138Q","EPOCH":"2025-11-15T12:23:04.852896","MEAN_MOTION":13.1972631,"ECCENTRICITY":0.0001937,"INCLINATION":87.9225,"RA_OF_ASC_NODE":347.4622,"ARG_OF_PERICENTER":96.6734,"MEAN_ANOMALY":263.462,"EPHEMERIS_TYPE":0,"CLASSIFICATION_TYPE":"U","NORAD_CAT_ID":54127,"ELEMENT_SET_NO":999,"REV_AT_EPOCH":14862,"BSTAR":0.00032807,"MEAN_MOTION_DOT":1.44e-6,"MEAN_MOTION_DDOT":0},{"OBJECT_NAME":"ONEWEB-0510","OBJECT_ID":"2022-138R","EPOCH":"2025-11-15T17:23:26.973600","MEAN_MOTION":13.20772618,"ECCENTRICITY":0.0001432,"INCLINATION":87.9174,"RA_OF_ASC_NODE":317.0088,"ARG_OF_PERICENTER":77.4559,"MEAN_ANOMALY":282.6734,"EPHEMERIS_TYPE":0,"CLASSIFICATION_TYPE":"U","NORAD_CAT_ID":54128,"ELEMENT_SET_NO":999,"REV_AT_EPOCH":15110,"BSTAR":5.6147e-5,"MEAN_MOTION_DOT":3.6e-7,"MEAN_MOTION_DDOT":0},{"OBJECT_NAME":"ONEWEB-0511","OBJECT_ID":"2022-138S","EPOCH":"2025-11-15T19:35:13.957728","MEAN_MOTION":13.1972615,"ECCENTRICITY":0.0001726,"INCLINATION":87.9222,"RA_OF_ASC_NODE":347.4063,"ARG_OF_PERICENTER":103.0837,"MEAN_ANOMALY":257.0488,"EPHEMERIS_TYPE":0,"CLASSIFICATION_TYPE":"U","NORAD_CAT_ID":54129,"ELEMENT_SET_NO":999,"REV_AT_EPOCH":14869,"BSTAR":-1.0509e-5,"MEAN_MOTION_DOT":9.0e-8,"MEAN_MOTION_DDOT":0},{"OBJECT_NAME":"ONEWEB-0512","OBJECT_ID":"2022-138T","EPOCH":"2025-11-15T19:23:51.114336","MEAN_MOTION":13.19726877,"ECCENTRICITY":0.0002135,"INCLINATION":87.9205,"RA_OF_ASC_NODE":347.4365,"ARG_OF_PERICENTER":103.432,"MEAN_ANOMALY":256.7051,"EPHEMERIS_TYPE":0,"CLASSIFICATION_TYPE":"U","NORAD_CAT_ID":54130,"ELEMENT_SET_NO":999,"REV_AT_EPOCH":14866,"BSTAR":0.00014821,"MEAN_MOTION_DOT":7.2e-7,"MEAN_MOTION_DDOT":0},{"OBJECT_NAME":"ONEWEB-0513","OBJECT_ID":"2022-138U","EPOCH":"2025-11-15T19:49:10.790976","MEAN_MOTION":13.20319237,"ECCENTRICITY":0.0002016,"INCLINATION":87.9228,"RA_OF_ASC_NODE":347.3942,"ARG_OF_PERICENTER":113.0672,"MEAN_ANOMALY":247.0674,"EPHEMERIS_TYPE":0,"CLASSIFICATION_TYPE":"U","NORAD_CAT_ID":54131,"ELEMENT_SET_NO":999,"REV_AT_EPOCH":14856,"BSTAR":-9.535e-5,"MEAN_MOTION_DOT":-2.6e-7,"MEAN_MOTION_DDOT":0}]
