ONEWEB-0495             
1 54115U 22138C   25319.56184006  .00000130  00000+0  29252-3 0  9998
2 54115  87.9210 347.4837 0002529 102.7936 257.3479 13.19726627148641
ONEWEB-0497             
1 54116U 22138D   25319.49865593  .00000176  00000+0  40629-3 0  9999
2 54116  87.9222 347.4807 0001938  95.6801 264.4553 13.19726510148627
ONEWEB-0499             
1 54117U 22138E   25319.48207833  .00000096  00000+0  20736-3 0  9994
2 54117  87.9218 347.4976 0001921 101.9020 258.2328 13.19726557148639
ONEWEB-0500             
1 54118U 22138F   25319.48443951  .00000103  00000+0  22398-3 0  9993
2 54118  87.9217 347.4845 0001873  92.6428 267.4919 13.19727031148645
ONEWEB-0501             
1 54119U 22138G   25319.81771696  .00000006  00000+0 -17975-4 0  9990
2 54119  87.9226 347.4142 0002271 100.5607 259.5782 13.19726312148660
ONEWEB-0502             
1 54120U 22138H   25319.50022699  .00000200  00000+0  46683-3 0  9992
2 54120  87.9221 347.4590 0001932 101.4152 258.7197 13.19727580148649
ONEWEB-0503             
1 54121U 22138J   25319.48917690  .00000114  00000+0  25225-3 0  9997
2 54121  87.9227 347.4658 0001664 102.0021 258.1298 13.19727055148637
ONEWEB-0504             
1 54122U 22138K   25319.47654571  .00000079  00000+0  16611-3 0  9992
2 54122  87.9223 347.4857 0002002 103.6275 256.5081 13.19726527148646
ONEWEB-0505             
1 54123U 22138L   25319.47338251  .00000046  00000+0  82838-4 0  9996
2 54123  87.9227 347.4749 0002305 105.1119 255.0269 13.19727164148629
ONEWEB-0506             
1 54124U 22138M   25319.82719117 -.00000008  00000+0 -53099-4 0  9997
2 54124  87.9222 347.4015 0001979  98.9507 261.1850 13.19726453148665
ONEWEB-0507             
1 54125U 22138N   25319.46863891  .00000077  00000+0  15994-3 0  9992
2 54125  87.9209 347.5129 0002081  97.9432 262.1937 13.19727014148660
ONEWEB-0508             
1 54126U 22138P   25319.46547198  .00000045  00000+0  81000-4 0  9999
2 54126  87.9222 347.5045 0002278  99.5108 260.6282 13.19727448148644
ONEWEB-0509             
1 54127U 22138Q   25319.51602839  .00000144  00000+0  32807-3 0  9990
2 54127  87.9225 347.4622 0001937  96.6734 263.4620 13.19726310148624
ONEWEB-0510             
1 54128U 22138R   25319.72461775  .00000036  00000+0  56147-4 0  9990
2 54128  87.9174 317.0088 0001432  77.4559 282.6734 13.20772618151109
ONEWEB-0511             
1 54129U 22138S   25319.81613377  .00000009  00000+0 -10509-4 0  9991
2 54129  87.9222 347.4063 0001726 103.0837 257.0488 13.19726150148695
ONEWEB-0512             
1 54130U 22138T   25319.80823049  .00000072  00000+0  14821-3 0  9990
2 54130  87.9205 347.4365 0002135 103.4320 256.7051 13.19726877148664
ONEWEB-0513             
1 54131U 22138U   25319.82581934 -.00000026  00000+0 -95350-4 0  9995
2 54131  87.9228 347.3942 0002016 113.0672 247.0674 13.20319237148568
